OPS 6582 (TRANSIT 5B-5) 
1 00965U 64083D   23121.79156229  .00000056  00000+0  65336-4 0  9998
2 00965  90.0373 196.5135 0041701  21.3411  93.8993 13.56820383888687
OSCAR 7 (AO-7)          
1 07530U 74089B   23122.22380858 -.00000032  00000+0  89137-4 0  9996
2 07530 101.9457 108.5943 0012377 149.9293 279.6851 12.53663835217652
UOSAT 2 (UO-11)         
1 14781U 84021B   23121.89609374  .00001714  00000+0  20819-3 0  9996
2 14781  97.6548 100.6337 0008268   6.3251 353.8067 14.84745219 87274
NOAA 9                  
1 15427U 84123A   23121.93061618  .00000204  00000+0  12623-3 0  9992
2 15427  99.0875 105.0333 0014613 347.4888  66.5471 14.16348910981690
LUSAT (LO-19)           
1 20442U 90005G   23121.88618743  .00000227  00000+0  99218-4 0  9993
2 20442  98.8408  97.4216 0010973 319.1238  40.9121 14.33239386738712
ITAMSAT (IO-26)         
1 22826U 93061D   23122.12269080  .00000173  00000+0  83721-4 0  9992
2 22826  98.8403 164.1247 0008956 181.3892 178.7266 14.30650151544229
RADIO ROSTO (RS-15)     
1 23439U 94085A   23121.88303204 -.00000039  00000+0  10000-3 0  9990
2 23439  64.8162 350.5873 0164121 218.2112 140.7085 11.27573655167396
JAS-2 (FO-29)           
1 24278U 96046B   23122.19859617 -.00000011  00000+0  23553-4 0  9998
2 24278  98.5263 107.0294 0350297 176.0292 184.3760 13.53142908318966
NOAA 15                 
1 25338U 98030A   23122.55913395  .00000267  00000+0  12941-3 0  9995
2 25338  98.6100 152.3880 0011601  88.1993 272.0516 14.26304360298754
TECHSAT 1B (GO-32)      
1 25397U 98043D   23121.84180147  .00000118  00000+0  71394-4 0  9999
2 25397  98.8650  78.9087 0000176 280.0154  80.1004 14.23863999288732
ISS (ZARYA)             
1 25544U 98067A   23122.36645824  .00013077  00000+0  23789-3 0  9997
2 25544  51.6401 195.6185 0005796 295.8163 156.9694 15.49850207394686
ORSTED                  
1 25635U 99008B   23121.97883367  .00000882  00000+0  21481-3 0  9993
2 25635  96.4575 277.0667 0135702 243.6479 115.0733 14.48967859276665
PHASE 3D (AO-40)        
1 26609U 00072B   23121.94170418 -.00000045  00000+0  00000+0 0  9993
2 26609   5.8804 189.6708 7924001 152.3924 294.7532  1.25588211103298
PCSAT (NO-44)           
1 26931U 01043C   23121.85947902  .00000212  00000+0  11219-3 0  9993
2 26931  67.0509 316.4453 0007464 279.0783  80.9473 14.30899039126953
SAUDISAT 1C (SO-50)     
1 27607U 02058C   23121.92818384  .00001249  00000+0  18849-3 0  9997
2 27607  64.5558  46.7354 0072970 233.9188 125.5143 14.77173760 95395
CUTE-1 (CO-55)          
1 27844U 03031E   23121.90527965  .00000428  00000+0  21052-3 0  9990
2 27844  98.6794 129.8388 0008571 258.3242 101.6974 14.22746018 29156
CUBESAT XI-IV (CO-57)   
1 27848U 03031J   23121.83016205  .00000362  00000+0  18276-3 0  9997
2 27848  98.6831 130.1978 0008451 275.7296  84.2918 14.22260848 28910
MOZHAYETS 4 (RS-22)     
1 27939U 03042A   23122.52607090  .00001471  00000+0  26369-3 0  9999
2 27939  98.2349 269.1646 0011282 281.2809  78.7137 14.68260947 47848
INMARSAT 4-F1           
1 28628U 05009A   23122.54920756 -.00000249  00000+0  00000+0 0  9992
2 28628   3.8739  38.0470 0002979   8.7895 154.5848  1.00271840 66217
NOAA 18                 
1 28654U 05018A   23122.46218198  .00000256  00000+0  16110-3 0  9992
2 28654  98.9105 197.0719 0015053 146.4478 213.7650 14.12925324925116
CUBESAT XI-V            
1 28895U 05043F   23121.30457620  .00002038  00000+0  38446-3 0  9990
2 28895  98.1456 253.7476 0015688 216.1501 143.8643 14.65490522933940
METOP-A                 
1 29499U 06044A   23122.22088441  .00002733  00000+0  36061-3 0  9999
2 29499  98.4039 181.3837 0195895  87.5479 357.9602 14.68412425860289
CARTOSAT-2 (IRS-P7)     
1 29710U 07001B   23121.90093049  .00032571  00000+0  48391-3 0  9995
2 29710  97.8834 254.7549 0103987   9.2385 351.0744 15.48975908885136
CAPE-1                  
1 31130U 07012P   23121.77803529  .00002281  00000+0  47543-3 0  9996
2 31130  98.3047  65.8912 0094230  27.5572 333.0577 14.58206812851467
CARTOSAT-2A             
1 32783U 08021A   23122.48085268  .00001371  00000+0  19371-3 0  9990
2 32783  97.9195 183.6771 0012241 208.4543 151.6007 14.78708317810166
CUTE-1.7+APD II (CO-65) 
1 32785U 08021C   23121.85849253  .00004601  00000+0  45953-3 0  9998
2 32785  97.7022  88.8279 0010323 255.3477 104.6598 14.91940417813980
COMPASS-1               
1 32787U 08021E   23121.91652434  .00007600  00000+0  60603-3 0  9991
2 32787  97.5939  99.4563 0012644 163.4388 196.7251 15.00534866815718
AAUSAT-II               
1 32788U 08021F   23122.49363146  .00011158  00000+0  83303-3 0  9990
2 32788  97.5576 102.9667 0009022 141.4344 218.7527 15.02962040816347
DELFI-C3 (DO-64)        
1 32789U 08021G   23121.66446624  .00045008  00000+0  14619-2 0  9996
2 32789  97.3080 143.6242 0003678 277.3220  82.7603 15.31782971820254
SEEDS II (CO-66)        
1 32791U 08021J   23121.86699732  .00006375  00000+0  57022-3 0  9991
2 32791  97.6523  94.1042 0011322 196.9346 163.1499 14.96160372814817
YUBILEINY (RS-30)       
1 32953U 08025A   23122.08840134  .00000024  00000+0  10000-3 0  9994
2 32953  82.5060 345.7790 0018833 286.9670  72.9348 12.43122693677928
FENGYUN 3A              
1 32958U 08026A   23122.44495678  .00000159  00000+0  96380-4 0  9994
2 32958  98.5516  77.8445 0008704 173.6415 186.4874 14.18859181773566
PRISM (HITOMI)          
1 33493U 09002B   23121.61221206  .00008573  00000+0  59912-3 0  9993
2 33493  98.2485 132.8995 0016085 194.8816 165.1937 15.05492619776738
STARS (KUKAI)           
1 33498U 09002G   23121.75590999  .00002933  00000+0  37859-3 0  9991
2 33498  98.1401  23.8620 0009171 310.7153  49.3262 14.81755689768530
KKS-1 (KISEKI)          
1 33499U 09002H   23121.92253205  .00001428  00000+0  21034-3 0  9993
2 33499  98.1784  13.6395 0009352  24.4009 335.7641 14.76942426767231
NOAA 19                 
1 33591U 09005A   23122.57173759  .00000236  00000+0  15214-3 0  9995
2 33591  99.1041 167.7607 0013989  15.9536 344.2073 14.12744474733509
SWISSCUBE               
1 35932U 09051B   23121.58243469  .00001133  00000+0  25918-3 0  9992
2 35932  98.5279 350.8241 0008117 141.9360 218.2412 14.57619792722460
BEESAT-1                
1 35933U 09051C   23122.57126133  .00001025  00000+0  23608-3 0  9995
2 35933  98.5207 353.2094 0006209 148.4029 211.7543 14.57543878722722
ITUPSAT1                
1 35935U 09051E   23121.68882334  .00000900  00000+0  21265-3 0  9998
2 35935  98.5310 352.2684 0008310 158.4796 201.6752 14.56598661722190
XIWANG-1 (HOPE-1)       
1 36122U 09072B   23121.87612255 -.00000027  00000+0  42280-4 0  9996
2 36122 100.2344  87.2211 0007216 334.6723  25.4036 13.16382015642704
CARTOSAT-2B             
1 36795U 10035A   23122.51832622  .00001194  00000+0  16971-3 0  9999
2 36795  97.9140 183.6394 0011980 293.9374  66.0575 14.78700875691217
TISAT 1                 
1 36799U 10035E   23122.53212202  .00004703  00000+0  42592-3 0  9998
2 36799  98.1446 350.3803 0012581 120.8968 239.3490 14.95838443695606
FENGYUN 3B              
1 37214U 10059A   23122.34745355  .00000167  00000+0  11102-3 0  9999
2 37214  99.0870 138.9359 0022293 173.0157 187.1328 14.14332205646036
JUGNU                   
1 37839U 11058B   23122.15956072  .00000542  00000+0  14603-3 0  9997
2 37839  19.9618  42.1843 0018945  71.7481  65.4985 14.12941972597371
SRMSAT                  
1 37841U 11058D   23121.41671903  .00000495  00000+0  12653-3 0  9995
2 37841  19.9704 132.7951 0011680 237.2046 267.6840 14.10882106596197
M-CUBED & EXP-1 PRIME   
1 37855U 11061F   23122.54710761  .00021220  00000+0  70420-3 0  9990
2 37855 101.7043  58.7468 0124494 179.2014 180.9430 15.24104410630075
HORYU-2                 
1 38340U 12025D   23122.23969112  .00002899  00000+0  40603-3 0  9994
2 38340  98.1694 210.2332 0009515 286.1693  73.8470 14.78310585589716
METOP-B                 
1 38771U 12049A   23122.48626487  .00000166  00000+0  95845-4 0  9994
2 38771  98.6819 182.6162 0001489 112.7504 311.0888 14.21503869551051
SARAL                   
1 39086U 13009A   23122.19970059  .00000178  00000+0  82296-4 0  9995
2 39086  98.5484 308.1592 0002945  74.1450 286.0058 14.32183456532102
AAUSAT 3                
1 39087U 13009B   23122.45548773  .00001123  00000+0  39500-3 0  9999
2 39087  98.3837 318.7922 0013018  38.3218 321.8884 14.36725584533377
STRAND-1                
1 39090U 13009E   23122.14176425  .00000415  00000+0  15874-3 0  9991
2 39090  98.3912 316.7632 0009840  47.5614 312.6403 14.35565155533135
BRITE-AUSTRIA           
1 39091U 13009F   23122.13693519  .00000276  00000+0  11062-3 0  9999
2 39091  98.3938 315.9786 0011388  52.9465 307.2761 14.35463268533150
UNIBRITE                
1 39092U 13009G   23122.11748066  .00000255  00000+0  10380-3 0  9995
2 39092  98.3976 315.7858 0010238  49.3585 310.8489 14.35335350533109
SOMP                    
1 39134U 13015E   23122.21158168  .00097598  00000+0  14891-2 0  9994
2 39134  64.8505  83.1337 0016094 257.9747 101.9593 15.53772805556205
BEESAT-3                
1 39135U 13015F   23122.22929787  .00039483  00000+0  99219-3 0  9996
2 39135  64.8579 130.8645 0021378 247.5441 112.3432 15.39529905555286
BEESAT-2                
1 39136U 13015G   23122.25509924  .00034134  00000+0  93079-3 0  9993
2 39136  64.8678 141.6336 0026464 282.3779  77.4395 15.36946347555094
NEE-01 PEGASO           
1 39151U 13018B   23122.56797153  .00002586  00000+0  32786-3 0  9994
2 39151  98.0036 232.6814 0014901 302.0602  57.9164 14.82552344540932
CUBEBUG-1 (CAPITAN BETO)
1 39153U 13018D   23122.59654983  .00003331  00000+0  41026-3 0  9998
2 39153  98.0325 238.5178 0014658 295.3821  64.5875 14.83566458541115
ESTCUBE 1               
1 39161U 13021C   23122.13457980  .00002448  00000+0  37829-3 0  9993
2 39161  97.8718 195.7062 0010389 116.4726 243.7523 14.74142938536395
